CCSDS_OMM_VERS = 2.0
CREATION_DATE  = 
ORIGINATOR     = 

OBJECT_NAME    = SL-3 R/B
OBJECT_ID      = 1988-032B
CENTER_NAME    = EARTH
REF_FRAME      = TEME
TIME_SYSTEM    = UTC
MEAN_ELEMENT_THEORY = SGP/SGP4

EPOCH          = 2026-04-01T21:42:46.537920
MEAN_MOTION    = 15.20169500
ECCENTRICITY   = .00267837
INCLINATION    = 97.5216
RA_OF_ASC_NODE = 75.0820
ARG_OF_PERICENTER = 149.5386
MEAN_ANOMALY   = 210.7411

EPHEMERIS_TYPE = 0
CLASSIFICATION_TYPE = U
NORAD_CAT_ID   = 19046
ELEMENT_SET_NO = 999
REV_AT_EPOCH   = 5563
BSTAR          = .28989117E-3
MEAN_MOTION_DOT = .6264E-4
MEAN_MOTION_DDOT = 0

CCSDS_OMM_VERS = 2.0
CREATION_DATE  = 
ORIGINATOR     = 

OBJECT_NAME    = SL-16 R/B
OBJECT_ID      = 1988-039B
CENTER_NAME    = EARTH
REF_FRAME      = TEME
TIME_SYSTEM    = UTC
MEAN_ELEMENT_THEORY = SGP/SGP4

EPOCH          = 2026-04-01T22:49:35.504832
MEAN_MOTION    = 14.19620345
ECCENTRICITY   = .00237739
INCLINATION    = 71.0173
RA_OF_ASC_NODE = 19.3607
ARG_OF_PERICENTER = 301.0949
MEAN_ANOMALY   = 58.7844

EPHEMERIS_TYPE = 0
CLASSIFICATION_TYPE = U
NORAD_CAT_ID   = 19120
ELEMENT_SET_NO = 999
REV_AT_EPOCH   = 96168
BSTAR          = .17452019E-4
MEAN_MOTION_DOT = -.11E-6
MEAN_MOTION_DDOT = 0

CCSDS_OMM_VERS = 2.0
CREATION_DATE  = 
ORIGINATOR     = 

OBJECT_NAME    = COSMOS 1953
OBJECT_ID      = 1988-050A
CENTER_NAME    = EARTH
REF_FRAME      = TEME
TIME_SYSTEM    = UTC
MEAN_ELEMENT_THEORY = SGP/SGP4

EPOCH          = 2026-04-01T20:42:24.360480
MEAN_MOTION    = 15.28885196
ECCENTRICITY   = .00120763
INCLINATION    = 82.5068
RA_OF_ASC_NODE = 134.9343
ARG_OF_PERICENTER = 50.3830
MEAN_ANOMALY   = 309.8474

EPHEMERIS_TYPE = 0
CLASSIFICATION_TYPE = U
NORAD_CAT_ID   = 19210
ELEMENT_SET_NO = 999
REV_AT_EPOCH   = 4132
BSTAR          = .28168515E-3
MEAN_MOTION_DOT = .7953E-4
MEAN_MOTION_DDOT = 0

CCSDS_OMM_VERS = 2.0
CREATION_DATE  = 
ORIGINATOR     = 

OBJECT_NAME    = SL-8 R/B
OBJECT_ID      = 1988-053B
CENTER_NAME    = EARTH
REF_FRAME      = TEME
TIME_SYSTEM    = UTC
MEAN_ELEMENT_THEORY = SGP/SGP4

EPOCH          = 2026-04-01T22:44:24.063072
MEAN_MOTION    = 14.38932004
ECCENTRICITY   = .00214167
INCLINATION    = 74.0464
RA_OF_ASC_NODE = 69.5909
ARG_OF_PERICENTER = 245.7733
MEAN_ANOMALY   = 176.9732

EPHEMERIS_TYPE = 0
CLASSIFICATION_TYPE = U
NORAD_CAT_ID   = 19257
ELEMENT_SET_NO = 999
REV_AT_EPOCH   = 97994
BSTAR          = .10794389E-3
MEAN_MOTION_DOT = .307E-5
MEAN_MOTION_DDOT = 0

CCSDS_OMM_VERS = 2.0
CREATION_DATE  = 
ORIGINATOR     = 

OBJECT_NAME    = COSMOS 1975
OBJECT_ID      = 1988-093A
CENTER_NAME    = EARTH
REF_FRAME      = TEME
TIME_SYSTEM    = UTC
MEAN_ELEMENT_THEORY = SGP/SGP4

EPOCH          = 2026-04-01T23:15:47.276352
MEAN_MOTION    = 15.28397341
ECCENTRICITY   = .00134238
INCLINATION    = 82.5155
RA_OF_ASC_NODE = 94.3040
ARG_OF_PERICENTER = 89.9522
MEAN_ANOMALY   = 270.3256

EPHEMERIS_TYPE = 0
CLASSIFICATION_TYPE = U
NORAD_CAT_ID   = 19573
ELEMENT_SET_NO = 999
REV_AT_EPOCH   = 2296
BSTAR          = .26786147E-3
MEAN_MOTION_DOT = .7456E-4
MEAN_MOTION_DDOT = 0

CCSDS_OMM_VERS = 2.0
CREATION_DATE  = 
ORIGINATOR     = 

OBJECT_NAME    = SL-14 R/B
OBJECT_ID      = 1988-093B
CENTER_NAME    = EARTH
REF_FRAME      = TEME
TIME_SYSTEM    = UTC
MEAN_ELEMENT_THEORY = SGP/SGP4

EPOCH          = 2026-04-01T21:35:07.829088
MEAN_MOTION    = 14.85684500
ECCENTRICITY   = .00197608
INCLINATION    = 82.5343
RA_OF_ASC_NODE = 20.2602
ARG_OF_PERICENTER = 325.1901
MEAN_ANOMALY   = 100.8936

EPHEMERIS_TYPE = 0
CLASSIFICATION_TYPE = U
NORAD_CAT_ID   = 19574
ELEMENT_SET_NO = 999
REV_AT_EPOCH   = 446
BSTAR          = .70536382E-4
MEAN_MOTION_DOT = .637E-5
MEAN_MOTION_DDOT = 0

CCSDS_OMM_VERS = 2.0
CREATION_DATE  = 
ORIGINATOR     = 

OBJECT_NAME    = SL-16 R/B
OBJECT_ID      = 1988-102B
CENTER_NAME    = EARTH
REF_FRAME      = TEME
TIME_SYSTEM    = UTC
MEAN_ELEMENT_THEORY = SGP/SGP4

EPOCH          = 2026-04-01T17:16:45.181632
MEAN_MOTION    = 14.16153877
ECCENTRICITY   = .00152847
INCLINATION    = 70.9969
RA_OF_ASC_NODE = 103.0379
ARG_OF_PERICENTER = 327.7197
MEAN_ANOMALY   = 32.2989

EPHEMERIS_TYPE = 0
CLASSIFICATION_TYPE = U
NORAD_CAT_ID   = 19650
ELEMENT_SET_NO = 999
REV_AT_EPOCH   = 93015
BSTAR          = .83733993E-4
MEAN_MOTION_DOT = .118E-5
MEAN_MOTION_DDOT = 0

CCSDS_OMM_VERS = 2.0
CREATION_DATE  = 
ORIGINATOR     = 

OBJECT_NAME    = INTERCOSMOS 24
OBJECT_ID      = 1989-080A
CENTER_NAME    = EARTH
REF_FRAME      = TEME
TIME_SYSTEM    = UTC
MEAN_ELEMENT_THEORY = SGP/SGP4

EPOCH          = 2026-04-01T23:55:27.870240
MEAN_MOTION    = 12.59586852
ECCENTRICITY   = .11869513
INCLINATION    = 82.6014
RA_OF_ASC_NODE = 89.2219
ARG_OF_PERICENTER = 238.6752
MEAN_ANOMALY   = 109.2870

EPHEMERIS_TYPE = 0
CLASSIFICATION_TYPE = U
NORAD_CAT_ID   = 20261
ELEMENT_SET_NO = 999
REV_AT_EPOCH   = 66973
BSTAR          = .14217347E-3
MEAN_MOTION_DOT = .483E-5
MEAN_MOTION_DDOT = 0

CCSDS_OMM_VERS = 2.0
CREATION_DATE  = 
ORIGINATOR     = 

OBJECT_NAME    = SL-14 R/B
OBJECT_ID      = 1989-080C
CENTER_NAME    = EARTH
REF_FRAME      = TEME
TIME_SYSTEM    = UTC
MEAN_ELEMENT_THEORY = SGP/SGP4

EPOCH          = 2026-04-01T22:06:17.856000
MEAN_MOTION    = 12.50515815
ECCENTRICITY   = .12309041
INCLINATION    = 82.5949
RA_OF_ASC_NODE = 158.2793
ARG_OF_PERICENTER = 131.6752
MEAN_ANOMALY   = 239.6527

EPHEMERIS_TYPE = 0
CLASSIFICATION_TYPE = U
NORAD_CAT_ID   = 20262
ELEMENT_SET_NO = 999
REV_AT_EPOCH   = 66305
BSTAR          = .12623424E-3
MEAN_MOTION_DOT = .449E-5
MEAN_MOTION_DDOT = 0

CCSDS_OMM_VERS = 2.0
CREATION_DATE  = 
ORIGINATOR     = 

OBJECT_NAME    = DELTA 1 R/B
OBJECT_ID      = 1989-089B
CENTER_NAME    = EARTH
REF_FRAME      = TEME
TIME_SYSTEM    = UTC
MEAN_ELEMENT_THEORY = SGP/SGP4

EPOCH          = 2026-04-01T19:06:59.264064
MEAN_MOTION    = 14.50682375
ECCENTRICITY   = .00703013
INCLINATION    = 97.0687
RA_OF_ASC_NODE = 295.5566
ARG_OF_PERICENTER = 50.3855
MEAN_ANOMALY   = 310.3520

EPHEMERIS_TYPE = 0
CLASSIFICATION_TYPE = U
NORAD_CAT_ID   = 20323
ELEMENT_SET_NO = 999
REV_AT_EPOCH   = 89908
BSTAR          = .11066253E-3
MEAN_MOTION_DOT = .414E-5
MEAN_MOTION_DDOT = 0

CCSDS_OMM_VERS = 2.0
CREATION_DATE  = 
ORIGINATOR     = 

OBJECT_NAME    = ARIANE 40 R/B
OBJECT_ID      = 1990-005H
CENTER_NAME    = EARTH
REF_FRAME      = TEME
TIME_SYSTEM    = UTC
MEAN_ELEMENT_THEORY = SGP/SGP4

EPOCH          = 2026-04-01T21:13:37.379424
MEAN_MOTION    = 14.39885851
ECCENTRICITY   = .00111641
INCLINATION    = 98.3035
RA_OF_ASC_NODE = 151.8493
ARG_OF_PERICENTER = 131.3766
MEAN_ANOMALY   = 228.8384

EPHEMERIS_TYPE = 0
CLASSIFICATION_TYPE = U
NORAD_CAT_ID   = 20443
ELEMENT_SET_NO = 999
REV_AT_EPOCH   = 89614
BSTAR          = .11449689E-3
MEAN_MOTION_DOT = .318E-5
MEAN_MOTION_DDOT = 0

CCSDS_OMM_VERS = 2.0
CREATION_DATE  = 
ORIGINATOR     = 

OBJECT_NAME    = DELTA 2 R/B(1)
OBJECT_ID      = 1990-008B
CENTER_NAME    = EARTH
REF_FRAME      = TEME
TIME_SYSTEM    = UTC
MEAN_ELEMENT_THEORY = SGP/SGP4

EPOCH          = 2026-04-01T23:07:32.474784
MEAN_MOTION    = 15.59148089
ECCENTRICITY   = .00767714
INCLINATION    = 35.6045
RA_OF_ASC_NODE = 21.7607
ARG_OF_PERICENTER = 117.4924
MEAN_ANOMALY   = 243.3642

EPHEMERIS_TYPE = 0
CLASSIFICATION_TYPE = U
NORAD_CAT_ID   = 20453
ELEMENT_SET_NO = 999
REV_AT_EPOCH   = 92976
BSTAR          = .74560462E-3
MEAN_MOTION_DOT = .70098E-3
MEAN_MOTION_DDOT = 0

