SL-3 R/B                
1 19046U 88032B   26091.90470530  .00006264  00000+0  28989-3 0  9993
2 19046  97.5216  75.0820 0026783 149.5386 210.7411 15.20169500 55630
SL-16 R/B               
1 19120U 88039B   26091.95110538 -.00000011  00000+0  17452-4 0  9996
2 19120  71.0173  19.3607 0023773 301.0949  58.7844 14.19620345961689
COSMOS 1953             
1 19210U 88050A   26091.86278195  .00007953  00000+0  28169-3 0  9990
2 19210  82.5068 134.9343 0012076  50.3830 309.8474 15.28885196 41324
SL-8 R/B                
1 19257U 88053B   26091.94750073  .00000307  00000+0  10794-3 0  9994
2 19257  74.0464  69.5909 0021416 245.7733 176.9732 14.38932004979941
COSMOS 1975             
1 19573U 88093A   26091.96929718  .00007456  00000+0  26786-3 0  9995
2 19573  82.5155  94.3040 0013423  89.9522 270.3256 15.28397341 22968
SL-14 R/B               
1 19574U 88093B   26091.89939617  .00000637  00000+0  70536-4 0  9994
2 19574  82.5343  20.2602 0019760 325.1901 100.8936 14.85684500  4461
SL-16 R/B               
1 19650U 88102B   26091.71996738  .00000118  00000+0  83734-4 0  9996
2 19650  70.9969 103.0379 0015284 327.7197  32.2989 14.16153877930156
INTERCOSMOS 24          
1 20261U 89080A   26091.99685035  .00000483  00000+0  14217-3 0  9991
2 20261  82.6014  89.2219 1186951 238.6752 109.2870 12.59586852669738
SL-14 R/B               
1 20262U 89080C   26091.92104000  .00000449  00000+0  12623-3 0  9994
2 20262  82.5949 158.2793 1230904 131.6752 239.6527 12.50515815663057
DELTA 1 R/B             
1 20323U 89089B   26091.79651926  .00000414  00000+0  11066-3 0  9992
2 20323  97.0687 295.5566 0070301  50.3855 310.3520 14.50682375899083
ARIANE 40 R/B           
1 20443U 90005H   26091.88446041  .00000318  00000+0  11450-3 0  9995
2 20443  98.3035 151.8493 0011164 131.3766 228.8384 14.39885851896149
DELTA 2 R/B(1)          
1 20453U 90008B   26091.96357031  .00070098  00000+0  74560-3 0  9991
2 20453  35.6045  21.7607 0076771 117.4924 243.3642 15.59148089929765
